OBJECT_NAME,OBJECT_ID,EPOCH,MEAN_MOTION,ECCENTRICITY,INCLINATION,RA_OF_ASC_NODE,ARG_OF_PERICENTER,MEAN_ANOMALY,EPHEMERIS_TYPE,CLASSIFICATION_TYPE,NORAD_CAT_ID,ELEMENT_SET_NO,REV_AT_EPOCH,BSTAR,MEAN_MOTION_DOT,MEAN_MOTION_DDOT
ISS (ZARYA),1998-067A,2017-03-01T12:56:56.740704,15.54483832,.0006241,51.6424,214.9056,248.7649,225.9563,0,U,25544,999,4501,.51737E-4,.2988E-4,0
ISS (ZARYA),1998-067A,2017-03-01T14:24:41.423616,15.54484298,.0006229,51.6424,214.6016,249.0522,206.8895,0,U,25544,999,4502,.51983E-4,.3005E-4,0
ISS (ZARYA),1998-067A,2017-03-01T20:41:53.368800,15.54487002,.0006198,51.6428,213.2954,250.0152,232.7771,0,U,25544,999,4506,.54641E-4,.3184E-4,0
ISS (ZARYA),1998-067A,2017-03-01T22:19:24.129696,15.54487605,.0006184,51.6427,212.9574,250.3801,251.6194,0,U,25544,999,4507,.55002E-4,.3208E-4,0
ISS (ZARYA),1998-067A,2017-03-02T03:49:05.999808,15.54489320,.0006178,51.6427,211.8150,251.2391,92.8889,0,U,25544,999,4510,.55114E-4,.3216E-4,0
ISS (ZARYA),1998-067A,2017-03-02T07:20:33.374976,15.54141636,.0007213,51.6439,211.0921,242.8578,203.3413,0,U,25544,999,4513,.25079E-2,.169337E-2,0
ISS (ZARYA),1998-067A,2017-03-02T13:20:36.194208,15.54078283,.0007151,51.6402,209.8449,245.5209,160.4650,0,U,25544,999,4517,-.63802E-3,-.42462E-3,0
ISS (ZARYA),1998-067A,2017-03-02T21:26:59.383968,15.54118094,.0006847,51.6415,208.1606,246.0797,250.9128,0,U,25544,999,4522,.32165E-3,.20876E-3,0
ISS (ZARYA),1998-067A,2017-03-03T06:24:58.181184,15.54126871,.0006837,51.6417,206.2976,246.9687,181.6236,0,U,25544,999,4528,.24591E-3,.15841E-3,0
ISS (ZARYA),1998-067A,2017-03-03T12:48:19.619424,15.54120726,.0007025,51.6421,204.9733,247.0917,231.9359,0,U,25544,999,4532,.11404E-3,.7077E-4,0
ISS (ZARYA),1998-067A,2017-03-03T14:17:20.432832,15.54122891,.000711,51.6436,204.6634,247.2026,217.9012,0,U,25544,999,4533,.12368E-3,.7718E-4,0
ISS (ZARYA),1998-067A,2017-03-03T17:49:09.999840,15.54121403,.0006945,51.6430,204.2490,248.1203,320.2984,0,U,25544,999,4535,.13302E-5,-.396E-5,0
ISS (ZARYA),1998-067A,2017-03-03T17:49:09.999840,15.54123278,.000699,51.6432,203.9282,247.7303,320.9275,0,U,25544,999,4535,.1092E-3,.6757E-4,0
ISS (ZARYA),1998-067A,2017-03-04T13:12:46.667232,15.54124586,.0006938,51.6437,199.8995,250.5944,162.0395,0,U,25544,999,4548,.58524E-4,.3395E-4,0
ISS (ZARYA),1998-067A,2017-03-04T15:19:57.999936,15.54125064,.0006946,51.6437,199.4591,250.9439,296.1857,0,U,25544,999,4549,.57458E-4,.3324E-4,0
ISS (ZARYA),1998-067A,2017-03-04T19:50:44.581632,15.54127785,.000688,51.6438,198.5214,251.9678,267.9137,0,U,25544,999,4552,.63215E-4,.3707E-4,0
ISS (ZARYA),1998-067A,2017-03-04T21:19:04.376640,15.54128272,.0006875,51.6438,198.2155,252.2124,251.0865,0,U,25544,999,4553,.63135E-4,.3701E-4,0
ISS (ZARYA),1998-067A,2017-03-05T04:26:55.999968,15.54131002,.0006886,51.6438,196.7339,253.1760,113.6021,0,U,25544,999,4558,.64155E-4,.3769E-4,0
ISS (ZARYA),1998-067A,2017-03-05T12:34:39.385344,15.54133284,.0006924,51.6441,195.0453,253.9735,209.0270,0,U,25544,999,4563,.5548E-4,.3194E-4,0
ISS (ZARYA),1998-067A,2017-03-05T20:29:14.910720,15.54137320,.0006879,51.6428,193.4003,254.7737,253.4046,0,U,25544,999,4568,.66373E-4,.3918E-4,0
ISS (ZARYA),1998-067A,2017-03-06T01:59:09.000384,15.54138888,.0006895,51.6431,192.2576,255.8282,94.9792,0,U,25544,999,4571,.64941E-4,.3823E-4,0
ISS (ZARYA),1998-067A,2017-03-06T05:24:41.854752,15.54140743,.0006882,51.6431,191.5459,256.3711,173.5923,0,U,25544,999,4574,.66917E-4,.3954E-4,0
ISS (ZARYA),1998-067A,2017-03-06T13:37:49.999584,15.54142949,.0006932,51.6432,189.8382,257.6582,289.5802,0,U,25544,999,4579,.64586E-4,.38E-4,0
ISS (ZARYA),1998-067A,2017-03-06T20:53:30.232320,15.54145775,.0006945,51.6432,188.3310,258.4723,182.6260,0,U,25544,999,4584,.65318E-4,.3849E-4,0
ISS (ZARYA),1998-067A,2017-03-07T04:34:10.295616,15.54148748,.0006965,51.6431,186.7357,259.8013,172.3485,0,U,25544,999,4589,.6575E-4,.3878E-4,0
ISS (ZARYA),1998-067A,2017-03-07T07:29:51.177696,15.54149843,.0006952,51.6431,186.1274,260.2250,134.9652,0,U,25544,999,4591,.65712E-4,.3876E-4,0
ISS (ZARYA),1998-067A,2017-03-07T10:56:05.025408,15.54150753,.0006937,51.6431,185.4134,260.8267,216.1778,0,U,25544,999,4593,.64613E-4,.3803E-4,0
ISS (ZARYA),1998-067A,2017-03-07T14:01:31.139616,15.54151587,.0006941,51.6429,184.7714,261.2127,216.7543,0,U,25544,999,4595,.64111E-4,.377E-4,0
ISS (ZARYA),1998-067A,2017-03-07T20:10:01.468128,15.54154647,.0006911,51.6438,183.4966,261.8864,208.8164,0,U,25544,999,4599,.66636E-4,.3938E-4,0
ISS (ZARYA),1998-067A,2017-03-08T01:46:02.999712,15.54156832,.0006895,51.6438,182.3330,262.6133,74.5456,0,U,25544,999,4602,.67054E-4,.3966E-4,0
