1 25544U 98067A   17060.53954561  .00002988  00000-0  51737-4 0  9996
2 25544  51.6424 214.9056 0006241 248.7649 225.9563 15.54483832 45019
1 25544U 98067A   17060.60047944  .00003005  00000-0  51983-4 0  9996
2 25544  51.6424 214.6016 0006229 249.0522 206.8895 15.54484298 45026
1 25544U 98067A   17060.86242325  .00003184  00000-0  54641-4 0  9996
2 25544  51.6428 213.2954 0006198 250.0152 232.7771 15.54487002 45063
1 25544U 98067A   17060.93014039  .00003208  00000-0  55002-4 0  9992
2 25544  51.6427 212.9574 0006184 250.3801 251.6194 15.54487605 45074
1 25544U 98067A   17061.15909722  .00003216  00000-0  55114-4 0  9992
2 25544  51.6427 211.8150 0006178 251.2391  92.8889 15.54489320 45105
1 25544U 98067A   17061.30594184  .00169337  00000-0  25079-2 0  9993
2 25544  51.6439 211.0921 0007213 242.8578 203.3413 15.54141636 45130
1 25544U 98067A   17061.55597447 -.00042462  00000-0 -63802-3 0  9993
2 25544  51.6402 209.8449 0007151 245.5209 160.4650 15.54078283 45179
1 25544U 98067A   17061.89374287  .00020876  00000-0  32165-3 0  9996
2 25544  51.6415 208.1606 0006847 246.0797 250.9128 15.54118094 45225
1 25544U 98067A   17062.26734006  .00015841  00000-0  24591-3 0  9997
2 25544  51.6417 206.2976 0006837 246.9687 181.6236 15.54126871 45280
1 25544U 98067A   17062.53356041  .00007077  00000-0  11404-3 0  9997
2 25544  51.6421 204.9733 0007025 247.0917 231.9359 15.54120726 45322
1 25544U 98067A   17062.59537538  .00007718  00000-0  12368-3 0  9997
2 25544  51.6436 204.6634 0007110 247.2026 217.9012 15.54122891 45339
1 25544U 98067A   17062.74247685  .00006757  00000-0  10920-3 0  9999
2 25544  51.6432 203.9282 0006990 247.7303 320.9275 15.54123278 45352
1 25544U 98067A   17062.74247685 -.00000396  00000-0  13302-5 0  9992
2 25544  51.6430 204.2490 0006945 248.1203 320.2984 15.54121403 45357
1 25544U 98067A   17063.55054013  .00003395  00000-0  58524-4 0  9998
2 25544  51.6437 199.8995 0006938 250.5944 162.0395 15.54124586 45481
1 25544U 98067A   17063.63886574  .00003324  00000-0  57458-4 0  9999
2 25544  51.6437 199.4591 0006946 250.9439 296.1857 15.54125064 45496
1 25544U 98067A   17063.82690488  .00003707  00000-0  63215-4 0  9990
2 25544  51.6438 198.5214 0006880 251.9678 267.9137 15.54127785 45525
1 25544U 98067A   17063.88824510  .00003701  00000-0  63135-4 0  9996
2 25544  51.6438 198.2155 0006875 252.2124 251.0865 15.54128272 45535
1 25544U 98067A   17064.18537037  .00003769  00000-0  64155-4 0  9992
2 25544  51.6438 196.7339 0006886 253.1760 113.6021 15.54131002 45587
1 25544U 98067A   17064.52406696  .00003194  00000-0  55480-4 0  9999
2 25544  51.6441 195.0453 0006924 253.9735 209.0270 15.54133284 45639
1 25544U 98067A   17064.85364480  .00003918  00000-0  66373-4 0  9996
2 25544  51.6428 193.4003 0006879 254.7737 253.4046 15.54137320 45681
1 25544U 98067A   17065.08274306  .00003823  00000-0  64941-4 0  9993
2 25544  51.6431 192.2576 0006895 255.8282  94.9792 15.54138888 45712
1 25544U 98067A   17065.22548443  .00003954  00000-0  66917-4 0  9995
2 25544  51.6431 191.5459 0006882 256.3711 173.5923 15.54140743 45749
1 25544U 98067A   17065.56793981  .00003800  00000-0  64586-4 0  9991
2 25544  51.6432 189.8382 0006932 257.6582 289.5802 15.54142949 45790
1 25544U 98067A   17065.87048880  .00003849  00000-0  65318-4 0  9993
2 25544  51.6432 188.3310 0006945 258.4723 182.6260 15.54145775 45842
1 25544U 98067A   17066.19039694  .00003878  00000-0  65750-4 0  9994
2 25544  51.6431 186.7357 0006965 259.8013 172.3485 15.54148748 45896
1 25544U 98067A   17066.31239789  .00003876  00000-0  65712-4 0  9991
2 25544  51.6431 186.1274 0006952 260.2250 134.9652 15.54149843 45913
1 25544U 98067A   17066.45561372  .00003803  00000-0  64613-4 0  9991
2 25544  51.6431 185.4134 0006937 260.8267 216.1778 15.54150753 45933
1 25544U 98067A   17066.58438819  .00003770  00000-0  64111-4 0  9990
2 25544  51.6429 184.7714 0006941 261.2127 216.7543 15.54151587 45955
1 25544U 98067A   17066.84029477  .00003938  00000-0  66636-4 0  9995
2 25544  51.6438 183.4966 0006911 261.8864 208.8164 15.54154647 45996
1 25544U 98067A   17067.07364583  .00003966  00000-0  67054-4 0  9997
2 25544  51.6438 182.3330 0006895 262.6133  74.5456 15.54156832 46023
